{
  "type": "FeatureCollection",
  "features": [
    {
      "type": "Feature",
      "properties": {
        "norad_id": 36058,
        "name": "COSMOS 2251 DEB",
        "group": "cosmos-2251-debris",
        "lat": -69.7311530106501,
        "lon": -3.0466155393777923,
        "alt_km": 709.3169306707896,
        "timestamp": "2025-12-05T04:52:15.687113+00:00",
        "meta_object_name": "COSMOS 2251 DEB",
        "meta_object_id": "1993-036AXV",
        "meta_epoch": "2025-12-02T21:15:38.245248",
        "meta_mean_motion": 14.58601869,
        "meta_eccentricity": 0.00452241,
        "meta_inclination": 74.0244,
        "meta_ra_of_asc_node": 52.2381,
        "meta_arg_of_pericenter": 188.8228,
        "meta_mean_anomaly": 171.2148,
        "meta_ephemeris_type": 0,
        "meta_classification_type": "U",
        "meta_norad_cat_id": 36058,
        "meta_element_set_no": 999,
        "meta_rev_at_epoch": 65967,
        "meta_bstar": 0.00090546257,
        "meta_mean_motion_dot": 4.247e-05,
        "meta_mean_motion_ddot": 0,
        "tle_line1": "1 36058U 93036AXV 25336.88585932  .00004247  00000+0  90546-3 0  9993",
        "tle_line2": "2 36058  74.0244  52.2381 0045224 188.8228 171.2148 14.58601869659675"
      },
      "geometry": {
        "type": "Point",
        "coordinates": [
          -3.0466155393777923,
          -69.7311530106501
        ]
      }
    },
    {
      "type": "Feature",
      "properties": {
        "norad_id": 36060,
        "name": "COSMOS 2251 DEB",
        "group": "cosmos-2251-debris",
        "lat": -72.69544813038556,
        "lon": -178.26847823700422,
        "alt_km": 755.1761535140913,
        "timestamp": "2025-12-05T04:52:15.687122+00:00",
        "meta_object_name": "COSMOS 2251 DEB",
        "meta_object_id": "1993-036AXX",
        "meta_epoch": "2025-12-04T02:36:53.095968",
        "meta_mean_motion": 14.41968213,
        "meta_eccentricity": 0.00149828,
        "meta_inclination": 74.0291,
        "meta_ra_of_asc_node": 250.5702,
        "meta_arg_of_pericenter": 348.4876,
        "meta_mean_anomaly": 11.5935,
        "meta_ephemeris_type": 0,
        "meta_classification_type": "U",
        "meta_norad_cat_id": 36060,
        "meta_element_set_no": 999,
        "meta_rev_at_epoch": 84885,
        "meta_bstar": 0.00063718489,
        "meta_mean_motion_dot": 2.066e-05,
        "meta_mean_motion_ddot": 0,
        "tle_line1": "1 36060U 93036AXX 25338.10894787  .00002066  00000+0  63718-3 0  9992",
        "tle_line2": "2 36060  74.0291 250.5702 0014982 348.4876  11.5935 14.41968213848851"
      },
      "geometry": {
        "type": "Point",
        "coordinates": [
          -178.26847823700422,
          -72.69544813038556
        ]
      }
    },
    {
      "type": "Feature",
      "properties": {
        "norad_id": 36061,
        "name": "COSMOS 2251 DEB",
        "group": "cosmos-2251-debris",
        "lat": -35.66118221423448,
        "lon": 1.6947113276454517,
        "alt_km": 805.9311550926441,
        "timestamp": "2025-12-05T04:52:15.687130+00:00",
        "meta_object_name": "COSMOS 2251 DEB",
        "meta_object_id": "1993-036AXY",
        "meta_epoch": "2025-12-03T19:33:06.948864",
        "meta_mean_motion": 14.33686991,
        "meta_eccentricity": 0.0036926,
        "meta_inclination": 74.0246,
        "meta_ra_of_asc_node": 16.0964,
        "meta_arg_of_pericenter": 106.9115,
        "meta_mean_anomaly": 253.609,
        "meta_ephemeris_type": 0,
        "meta_classification_type": "U",
        "meta_norad_cat_id": 36061,
        "meta_element_set_no": 999,
        "meta_rev_at_epoch": 64976,
        "meta_bstar": 0.00048994,
        "meta_mean_motion_dot": 1.344e-05,
        "meta_mean_motion_ddot": 0,
        "tle_line1": "1 36061U 93036AXY 25337.81466376  .00001344  00000+0  48994-3 0  9996",
        "tle_line2": "2 36061  74.0246  16.0964 0036926 106.9115 253.6090 14.33686991649763"
      },
      "geometry": {
        "type": "Point",
        "coordinates": [
          1.6947113276454517,
          -35.66118221423448
        ]
      }
    },
    {
      "type": "Feature",
      "properties": {
        "norad_id": 36073,
        "name": "COSMOS 2251 DEB",
        "group": "cosmos-2251-debris",
        "lat": 24.447869893809084,
        "lon": -16.143345749757458,
        "alt_km": 758.6301020165392,
        "timestamp": "2025-12-05T04:52:15.687139+00:00",
        "meta_object_name": "COSMOS 2251 DEB",
        "meta_object_id": "1993-036AYL",
        "meta_epoch": "2025-12-02T18:11:25.029312",
        "meta_mean_motion": 14.34931351,
        "meta_eccentricity": 0.00234518,
        "meta_inclination": 74.0318,
        "meta_ra_of_asc_node": 340.8572,
        "meta_arg_of_pericenter": 51.9571,
        "meta_mean_anomaly": 308.3693,
        "meta_ephemeris_type": 0,
        "meta_classification_type": "U",
        "meta_norad_cat_id": 36073,
        "meta_element_set_no": 999,
        "meta_rev_at_epoch": 70064,
        "meta_bstar": 0.00029028111,
        "meta_mean_motion_dot": 8.02e-06,
        "meta_mean_motion_ddot": 0,
        "tle_line1": "1 36073U 93036AYL 25336.75792858  .00000802  00000+0  29028-3 0  9993",
        "tle_line2": "2 36073  74.0318 340.8572 0023451  51.9571 308.3693 14.34931351700649"
      },
      "geometry": {
        "type": "Point",
        "coordinates": [
          -16.143345749757458,
          24.447869893809084
        ]
      }
    },
    {
      "type": "Feature",
      "properties": {
        "norad_id": 36074,
        "name": "COSMOS 2251 DEB",
        "group": "cosmos-2251-debris",
        "lat": -68.11753168127889,
        "lon": -51.08600571773448,
        "alt_km": 781.5671330543246,
        "timestamp": "2025-12-05T04:52:15.687148+00:00",
        "meta_object_name": "COSMOS 2251 DEB",
        "meta_object_id": "1993-036AYM",
        "meta_epoch": "2025-12-04T07:35:54.379968",
        "meta_mean_motion": 14.43651509,
        "meta_eccentricity": 0.0041318,
        "meta_inclination": 73.9929,
        "meta_ra_of_asc_node": 356.1864,
        "meta_arg_of_pericenter": 90.6412,
        "meta_mean_anomaly": 269.9479,
        "meta_ephemeris_type": 0,
        "meta_classification_type": "U",
        "meta_norad_cat_id": 36074,
        "meta_element_set_no": 999,
        "meta_rev_at_epoch": 85788,
        "meta_bstar": 0.0017767,
        "meta_mean_motion_dot": 6.071e-05,
        "meta_mean_motion_ddot": 0,
        "tle_line1": "1 36074U 93036AYM 25338.31660162  .00006071  00000+0  17767-2 0  9990",
        "tle_line2": "2 36074  73.9929 356.1864 0041318  90.6412 269.9479 14.43651509857883"
      },
      "geometry": {
        "type": "Point",
        "coordinates": [
          -51.08600571773448,
          -68.11753168127889
        ]
      }
    },
    {
      "type": "Feature",
      "properties": {
        "norad_id": 36366,
        "name": "COSMOS 2251 DEB",
        "group": "cosmos-2251-debris",
        "lat": 37.060330003116064,
        "lon": 94.36246411463868,
        "alt_km": 842.9370362868967,
        "timestamp": "2025-12-05T04:52:15.687157+00:00",
        "meta_object_name": "COSMOS 2251 DEB",
        "meta_object_id": "1993-036AYT",
        "meta_epoch": "2025-12-02T05:51:07.218720",
        "meta_mean_motion": 14.33192884,
        "meta_eccentricity": 0.0091167,
        "meta_inclination": 74.0653,
        "meta_ra_of_asc_node": 292.2194,
        "meta_arg_of_pericenter": 322.5756,
        "meta_mean_anomaly": 36.9067,
        "meta_ephemeris_type": 0,
        "meta_classification_type": "U",
        "meta_norad_cat_id": 36366,
        "meta_element_set_no": 999,
        "meta_rev_at_epoch": 86138,
        "meta_bstar": 0.0027816,
        "meta_mean_motion_dot": 7.987e-05,
        "meta_mean_motion_ddot": 0,
        "tle_line1": "1 36366U 93036AYT 25336.24383355  .00007987  00000+0  27816-2 0  9993",
        "tle_line2": "2 36366  74.0653 292.2194 0091167 322.5756  36.9067 14.33192884861384"
      },
      "geometry": {
        "type": "Point",
        "coordinates": [
          94.36246411463868,
          37.060330003116064
        ]
      }
    },
    {
      "type": "Feature",
      "properties": {
        "norad_id": 36367,
        "name": "COSMOS 2251 DEB",
        "group": "cosmos-2251-debris",
        "lat": 14.563899590232651,
        "lon": -111.62093864656552,
        "alt_km": 832.8802933638235,
        "timestamp": "2025-12-05T04:52:15.687166+00:00",
        "meta_object_name": "COSMOS 2251 DEB",
        "meta_object_id": "1993-036AYU",
        "meta_epoch": "2025-12-04T11:28:53.471424",
        "meta_mean_motion": 13.86261644,
        "meta_eccentricity": 0.0262731,
        "meta_inclination": 74.1015,
        "meta_ra_of_asc_node": 245.3541,
        "meta_arg_of_pericenter": 320.0579,
        "meta_mean_anomaly": 38.1471,
        "meta_ephemeris_type": 0,
        "meta_classification_type": "U",
        "meta_norad_cat_id": 36367,
        "meta_element_set_no": 999,
        "meta_rev_at_epoch": 57415,
        "meta_bstar": 0.0029476,
        "meta_mean_motion_dot": 4.444e-05,
        "meta_mean_motion_ddot": 0,
        "tle_line1": "1 36367U 93036AYU 25338.47839666  .00004444  00000+0  29476-2 0  9991",
        "tle_line2": "2 36367  74.1015 245.3541 0262731 320.0579  38.1471 13.86261644574153"
      },
      "geometry": {
        "type": "Point",
        "coordinates": [
          -111.62093864656552,
          14.563899590232651
        ]
      }
    }
  ]
}